[{"COMMENT":"GENERATED VIA SPACETRACK.ORG API","ORIGINATOR":"18 SPCS","NORAD_CAT_ID":"43477","OBJECT_NAME":"GRACE-FO 2","OBJECT_TYPE":"PAYLOAD","CLASSIFICATION_TYPE":"U","INTLDES":"18047B","EPOCH":"2023-04-13 10:12:04","EPOCH_MICROSECONDS":"929984","MEAN_MOTION":"15.25746577","ECCENTRICITY":"0.001114","INCLINATION":"88.9942","RA_OF_ASC_NODE":"357.9431","ARG_OF_PERICENTER":"290.0117","MEAN_ANOMALY":"69.9931","EPHEMERIS_TYPE":"0","ELEMENT_SET_NO":"999","REV_AT_EPOCH":"27212","BSTAR":"0.00014119","MEAN_MOTION_DOT":"0.00003634","MEAN_MOTION_DDOT":"0","FILE":"3886564","TLE_LINE0":"0 GRACE-FO 2","TLE_LINE1":"1 43477U 18047B   23103.42505706  .00003634  00000-0  14119-3 0  9998","TLE_LINE2":"2 43477  88.9942 357.9431 0011140 290.0117  69.9931 15.25746577272126","OBJECT_ID":"2018-047B","OBJECT_NUMBER":"43477","SEMIMAJOR_AXIS":"6866.682","PERIOD":"94.380","APOGEE":"496.196","PERIGEE":"480.897","DECAYED":"0"},{"COMMENT":"GENERATED VIA SPACETRACK.ORG API","ORIGINATOR":"18 SPCS","NORAD_CAT_ID":"43477","OBJECT_NAME":"GRACE-FO 2","OBJECT_TYPE":"PAYLOAD","CLASSIFICATION_TYPE":"U","INTLDES":"18047B","EPOCH":"2023-04-14 12:57:39","EPOCH_MICROSECONDS":"539808","MEAN_MOTION":"15.25755934","ECCENTRICITY":"0.0011056","INCLINATION":"88.9943","RA_OF_ASC_NODE":"357.7925","ARG_OF_PERICENTER":"284.516","MEAN_ANOMALY":"75.4862","EPHEMERIS_TYPE":"0","ELEMENT_SET_NO":"999","REV_AT_EPOCH":"27229","BSTAR":"0.00015063","MEAN_MOTION_DOT":"0.00003876","MEAN_MOTION_DDOT":"0","FILE":"3887333","TLE_LINE0":"0 GRACE-FO 2","TLE_LINE1":"1 43477U 18047B   23104.54004097  .00003876  00000-0  15063-3 0  9996","TLE_LINE2":"2 43477  88.9943 357.7925 0011056 284.5160  75.4862 15.25755934272295","OBJECT_ID":"2018-047B","OBJECT_NUMBER":"43477","SEMIMAJOR_AXIS":"6866.653","PERIOD":"94.379","APOGEE":"496.110","PERIGEE":"480.927","DECAYED":"0"},{"COMMENT":"GENERATED VIA SPACETRACK.ORG API","ORIGINATOR":"18 SPCS","NORAD_CAT_ID":"43477","OBJECT_NAME":"GRACE-FO 2","OBJECT_TYPE":"PAYLOAD","CLASSIFICATION_TYPE":"U","INTLDES":"18047B","EPOCH":"2023-04-14 20:49:53","EPOCH_MICROSECONDS":"132448","MEAN_MOTION":"15.25759338","ECCENTRICITY":"0.0011044","INCLINATION":"88.9944","RA_OF_ASC_NODE":"357.7482","ARG_OF_PERICENTER":"282.9496","MEAN_ANOMALY":"77.0518","EPHEMERIS_TYPE":"0","ELEMENT_SET_NO":"999","REV_AT_EPOCH":"27234","BSTAR":"0.000165","MEAN_MOTION_DOT":"0.00004244","MEAN_MOTION_DDOT":"0","FILE":"3887419","TLE_LINE0":"0 GRACE-FO 2","TLE_LINE1":"1 43477U 18047B   23104.86797607  .00004244  00000-0  16500-3 0  9994","TLE_LINE2":"2 43477  88.9944 357.7482 0011044 282.9496  77.0518 15.25759338272349","OBJECT_ID":"2018-047B","OBJECT_NUMBER":"43477","SEMIMAJOR_AXIS":"6866.643","PERIOD":"94.379","APOGEE":"496.092","PERIGEE":"480.925","DECAYED":"0"},{"COMMENT":"GENERATED VIA SPACETRACK.ORG API","ORIGINATOR":"18 SPCS","NORAD_CAT_ID":"43477","OBJECT_NAME":"GRACE-FO 2","OBJECT_TYPE":"PAYLOAD","CLASSIFICATION_TYPE":"U","INTLDES":"18047B","EPOCH":"2023-04-15 12:34:20","EPOCH_MICROSECONDS":"176896","MEAN_MOTION":"15.25765499","ECCENTRICITY":"0.0011008","INCLINATION":"88.9944","RA_OF_ASC_NODE":"357.6598","ARG_OF_PERICENTER":"279.7199","MEAN_ANOMALY":"80.2806","EPHEMERIS_TYPE":"0","ELEMENT_SET_NO":"999","REV_AT_EPOCH":"27244","BSTAR":"0.00018023","MEAN_MOTION_DOT":"0.00004633","MEAN_MOTION_DDOT":"0","FILE":"3887974","TLE_LINE0":"0 GRACE-FO 2","TLE_LINE1":"1 43477U 18047B   23105.52384464  .00004633  00000-0  18023-3 0  9995","TLE_LINE2":"2 43477  88.9944 357.6598 0011008 279.7199  80.2806 15.25765499272442","OBJECT_ID":"2018-047B","OBJECT_NUMBER":"43477","SEMIMAJOR_AXIS":"6866.625","PERIOD":"94.379","APOGEE":"496.049","PERIGEE":"480.931","DECAYED":"0"},{"COMMENT":"GENERATED VIA SPACETRACK.ORG API","ORIGINATOR":"18 SPCS","NORAD_CAT_ID":"43477","OBJECT_NAME":"GRACE-FO 2","OBJECT_TYPE":"PAYLOAD","CLASSIFICATION_TYPE":"U","INTLDES":"18047B","EPOCH":"2023-04-15 22:01:00","EPOCH_MICROSECONDS":"290208","MEAN_MOTION":"15.25769449","ECCENTRICITY":"0.0010998","INCLINATION":"88.9945","RA_OF_ASC_NODE":"357.6067","ARG_OF_PERICENTER":"277.9258","MEAN_ANOMALY":"82.0742","EPHEMERIS_TYPE":"0","ELEMENT_SET_NO":"999","REV_AT_EPOCH":"27250","BSTAR":"0.00019103","MEAN_MOTION_DOT":"0.0000491","MEAN_MOTION_DDOT":"0","FILE":"3888171","TLE_LINE0":"0 GRACE-FO 2","TLE_LINE1":"1 43477U 18047B   23105.91736447  .00004910  00000-0  19103-3 0  9998","TLE_LINE2":"2 43477  88.9945 357.6067 0010998 277.9258  82.0742 15.25769449272502","OBJECT_ID":"2018-047B","OBJECT_NUMBER":"43477","SEMIMAJOR_AXIS":"6866.613","PERIOD":"94.379","APOGEE":"496.030","PERIGEE":"480.926","DECAYED":"0"},{"COMMENT":"GENERATED VIA SPACETRACK.ORG API","ORIGINATOR":"18 SPCS","NORAD_CAT_ID":"43477","OBJECT_NAME":"GRACE-FO 2","OBJECT_TYPE":"PAYLOAD","CLASSIFICATION_TYPE":"U","INTLDES":"18047B","EPOCH":"2023-04-16 13:45:26","EPOCH_MICROSECONDS":"955360","MEAN_MOTION":"15.25775801","ECCENTRICITY":"0.0010985","INCLINATION":"88.9944","RA_OF_ASC_NODE":"357.5182","ARG_OF_PERICENTER":"274.6041","MEAN_ANOMALY":"85.3952","EPHEMERIS_TYPE":"0","ELEMENT_SET_NO":"999","REV_AT_EPOCH":"27260","BSTAR":"0.00019594","MEAN_MOTION_DOT":"0.00005036","MEAN_MOTION_DDOT":"0","FILE":"3888626","TLE_LINE0":"0 GRACE-FO 2","TLE_LINE1":"1 43477U 18047B   23106.57322865  .00005036  00000-0  19594-3 0  9990","TLE_LINE2":"2 43477  88.9944 357.5182 0010985 274.6041  85.3952 15.25775801272607","OBJECT_ID":"2018-047B","OBJECT_NUMBER":"43477","SEMIMAJOR_AXIS":"6866.594","PERIOD":"94.378","APOGEE":"496.002","PERIGEE":"480.916","DECAYED":"0"},{"COMMENT":"GENERATED VIA SPACETRACK.ORG API","ORIGINATOR":"18 SPCS","NORAD_CAT_ID":"43477","OBJECT_NAME":"GRACE-FO 2","OBJECT_TYPE":"PAYLOAD","CLASSIFICATION_TYPE":"U","INTLDES":"18047B","EPOCH":"2023-04-16 20:03:13","EPOCH_MICROSECONDS":"546944","MEAN_MOTION":"15.25778528","ECCENTRICITY":"0.0010982","INCLINATION":"88.9945","RA_OF_ASC_NODE":"357.4828","ARG_OF_PERICENTER":"273.3375","MEAN_ANOMALY":"86.6617","EPHEMERIS_TYPE":"0","ELEMENT_SET_NO":"999","REV_AT_EPOCH":"27264","BSTAR":"0.00019897","MEAN_MOTION_DOT":"0.00005114","MEAN_MOTION_DDOT":"0","FILE":"3888799","TLE_LINE0":"0 GRACE-FO 2","TLE_LINE1":"1 43477U 18047B   23106.83557346  .00005114  00000-0  19897-3 0  9996","TLE_LINE2":"2 43477  88.9945 357.4828 0010982 273.3375  86.6617 15.25778528272642","OBJECT_ID":"2018-047B","OBJECT_NUMBER":"43477","SEMIMAJOR_AXIS":"6866.586","PERIOD":"94.378","APOGEE":"495.992","PERIGEE":"480.910","DECAYED":"0"},{"COMMENT":"GENERATED VIA SPACETRACK.ORG API","ORIGINATOR":"18 SPCS","NORAD_CAT_ID":"43477","OBJECT_NAME":"GRACE-FO 2","OBJECT_TYPE":"PAYLOAD","CLASSIFICATION_TYPE":"U","INTLDES":"18047B","EPOCH":"2023-04-17 11:47:39","EPOCH_MICROSECONDS":"861312","MEAN_MOTION":"15.25784765","ECCENTRICITY":"0.0010978","INCLINATION":"88.9944","RA_OF_ASC_NODE":"357.3943","ARG_OF_PERICENTER":"270.049","MEAN_ANOMALY":"89.95","EPHEMERIS_TYPE":"0","ELEMENT_SET_NO":"999","REV_AT_EPOCH":"27274","BSTAR":"0.00019251","MEAN_MOTION_DOT":"0.0000495","MEAN_MOTION_DDOT":"0","FILE":"3889077","TLE_LINE0":"0 GRACE-FO 2","TLE_LINE1":"1 43477U 18047B   23107.49143358  .00004950  00000-0  19251-3 0  9994","TLE_LINE2":"2 43477  88.9944 357.3943 0010978 270.0490  89.9500 15.25784765272743","OBJECT_ID":"2018-047B","OBJECT_NUMBER":"43477","SEMIMAJOR_AXIS":"6866.567","PERIOD":"94.378","APOGEE":"495.970","PERIGEE":"480.894","DECAYED":"0"},{"COMMENT":"GENERATED VIA SPACETRACK.ORG API","ORIGINATOR":"18 SPCS","NORAD_CAT_ID":"43477","OBJECT_NAME":"GRACE-FO 2","OBJECT_TYPE":"PAYLOAD","CLASSIFICATION_TYPE":"U","INTLDES":"18047B","EPOCH":"2023-04-17 13:22:06","EPOCH_MICROSECONDS":"479616","MEAN_MOTION":"15.25785402","ECCENTRICITY":"0.0010978","INCLINATION":"88.9944","RA_OF_ASC_NODE":"357.3854","ARG_OF_PERICENTER":"269.7202","MEAN_ANOMALY":"90.2788","EPHEMERIS_TYPE":"0","ELEMENT_SET_NO":"999","REV_AT_EPOCH":"27275","BSTAR":"0.00019122","MEAN_MOTION_DOT":"0.00004917","MEAN_MOTION_DDOT":"0","FILE":"3889215","TLE_LINE0":"0 GRACE-FO 2","TLE_LINE1":"1 43477U 18047B   23107.55701944  .00004917  00000-0  19122-3 0  9992","TLE_LINE2":"2 43477  88.9944 357.3854 0010978 269.7202  90.2788 15.25785402272753","OBJECT_ID":"2018-047B","OBJECT_NUMBER":"43477","SEMIMAJOR_AXIS":"6866.565","PERIOD":"94.378","APOGEE":"495.968","PERIGEE":"480.892","DECAYED":"0"},{"COMMENT":"GENERATED VIA SPACETRACK.ORG API","ORIGINATOR":"18 SPCS","NORAD_CAT_ID":"43477","OBJECT_NAME":"GRACE-FO 2","OBJECT_TYPE":"PAYLOAD","CLASSIFICATION_TYPE":"U","INTLDES":"18047B","EPOCH":"2023-04-17 21:14:19","EPOCH_MICROSECONDS":"539168","MEAN_MOTION":"15.2578839","ECCENTRICITY":"0.0010984","INCLINATION":"88.9944","RA_OF_ASC_NODE":"357.3412","ARG_OF_PERICENTER":"268.1656","MEAN_ANOMALY":"91.8335","EPHEMERIS_TYPE":"0","ELEMENT_SET_NO":"999","REV_AT_EPOCH":"27280","BSTAR":"0.00018504","MEAN_MOTION_DOT":"0.0000476","MEAN_MOTION_DDOT":"0","FILE":"3889391","TLE_LINE0":"0 GRACE-FO 2","TLE_LINE1":"1 43477U 18047B   23107.88494837  .00004760  00000-0  18504-3 0  9997","TLE_LINE2":"2 43477  88.9944 357.3412 0010984 268.1656  91.8335 15.25788390272806","OBJECT_ID":"2018-047B","OBJECT_NUMBER":"43477","SEMIMAJOR_AXIS":"6866.556","PERIOD":"94.377","APOGEE":"495.963","PERIGEE":"480.879","DECAYED":"0"}]